#dP2024  6 24  0  0  0.00000000      96 __u+U IGS20 FIT  IAC
## 2320  86400.00000000   900.00000000 60485 0.0000000000000
+  128   C01C02C03C04C05C06C07C08C09C10C11C12C13C14C16C19C20
+        C21C22C23C24C25C26C27C28C29C30C32C33C34C35C36C37C38
+        C39C40C41C42C43C44C45C60E02E03E04E05E07E08E09E10E11
+        E12E13E14E15E18E19E21E25E26E27E30E31E33E34E36G01G02
+        G03G04G05G06G07G08G09G10G11G12G13G14G15G16G17G18G19
+        G20G21G22G23G24G25G26G27G28G29G30G31G32J02J03J04J07
+        R01R02R03R04R05R06R07R08R09R10R11R12R13R14R15R16R17
+        R18R19R20R21R22R23R24R25R26  0  0  0  0  0  0  0  0
++        18 17 17 17 17  9  9 10  9  9  9  9  9  9  9  7  7
++         7  7  8  7  8  7  7  7  7  7  7  8  8  7  7  8  9
++         9  8  8  7  8  7  7 19  4  4  5  4  4  4  5  4  4
++         4  4  5  4  5  5  5  4  4  4  4  6  5  5  5  4  4
++         4  4  4  4  4  4  4  4  4  4  4  4  4  4  4  4  4
++         4  4  4  4  4  4  4  4  4  4  4  4  4 11 12 11 17
++         7  6  6  6  6 15  6  6  6 15  6  6  7  6  6  6  6
++         6  8  8  6  6 15  6  8  9  0  0  0  0  0  0  0  0
%c M  cc GPS ccc cccc cccc cccc cccc ccccc ccccc ccccc ccccc
%c cc cc ccc ccc cccc cccc cccc cccc ccccc ccccc ccccc ccccc
%f  0.0000000  0.000000000  0.00000000000  0.000000000000000
%f  0.0000000  0.000000000  0.00000000000  0.000000000000000
%i    0    0    0    0      0      0      0      0         0
%i    0    0    0    0      0      0      0      0         0
/* INFORMATION & ANALYSIS CENTER (IAC)            RAPID DATA
/* S/V CLOCKS ARE ALIGNED TO GNSS TIME                      
/* G:C1WC2W R:C1PC2P E:C1XC5X C:C2IC6I J:C1CC2S             
/* PCV:IGS20_2317 OL/AL:FES2004  NONE     YN ORB:CoN CLK:CoN
*  2024 06 24  9 45  0.00000000
PC01 -34323.033948  24448.688833   1108.511273    903.945312
PC02   4280.687842  41920.468360   1703.685162    798.984670
PC03 -14877.194197  39430.454869   1401.057509    460.037743
PC04 -39622.334447  14366.143225    669.672397   -610.981708
PC05  21921.912317  36015.385797   1143.526180   -662.814601
PC06 -13743.584905  40000.139225  -1337.693398    531.958307
PC07  -1958.859359  31119.844632 -28209.170075   -609.710379
PC08 -15609.783791  21570.449133  32610.970399   -244.918336
PC09  -8909.936375  40112.055180 -10360.439614     64.876892
PC10   4566.859470  33009.918645 -25147.956882    -44.333460
PC11  -7688.993521 -24234.372060 -11457.989169    629.201747
PC12   4195.473461 -26730.590797   6877.560242   -259.277646
PC13  -8452.196289  23162.842859  34294.792635    438.498584
PC14 -17165.132445 -18343.671543 -12212.132357    910.981520
PC16 -14810.173806  39684.991006    411.196660   -610.576041
PC19  23256.294913  14977.930876   3563.666223   -915.268772
PC20   9883.472727  18895.089941  17985.489956   -610.386816
PC21  10834.186134 -11698.348306 -22889.385611   -966.986743
PC22  24100.150577   2193.470338 -13875.156404     39.056071
PC23 -24942.357628   6737.885681  10555.548176   -790.488373
PC24   3283.369613 -19196.811228  19987.048417    896.180965
PC25 -15518.517295  -8393.158759  21609.448880    433.923008
PC26  19485.196259 -18820.534942   6753.946786   -310.258691
PC27  -9459.489898  21917.822626 -14479.767912    331.440133
PC28 -15565.526388   5792.775412 -22423.739853    254.918861
PC29  13529.556430  17124.492401  17380.655911    299.226400
PC30   2695.787619  27766.889809    981.225439   -112.106163
PC32 -10907.783657  11707.198541  22875.850031   -655.368985
PC33 -23347.438109 -14874.594077  -3632.074508   -960.347308
PC34  -3809.661760 -27513.364803  -2622.476059    462.584190
PC35  15494.192623  -5898.810847  22426.364740    330.065136
PC36  15451.232907   8619.171722 -21555.326587    118.806941
PC37 -19923.558869  18340.463393  -6675.602854   -935.408937
PC38 -22235.534688  23289.967448  27167.624910    163.193058
PC39 -15781.494322  38707.920146   6486.340962     -8.873157
PC40  -5594.293189  26634.860414 -32089.356875    -76.729345
PC41 -24485.662763  -2762.516329  13171.612850   -958.056949
PC42  -8230.193059 -18750.610896 -18937.151543   -448.108744
PC43 -13255.308964 -17978.478047 -16731.815384     76.465349
PC44   8751.720960 -22152.579525  14501.868588    513.027025
PC45  24899.809463  -6487.541976 -10823.256580    -97.475255
PC60   7283.954239  41490.251875   1627.498051     -0.675290
PE02  29457.929420   -753.107112   2858.002158    137.993130
PE03  19164.238552   2733.608481 -22388.124047   -122.465792
PE04  -8184.472670  17679.566799  22293.023621   -428.886652
PE05  18602.100950  21053.694187  -9301.739716   4759.876357
PE07  -6906.720699 -27141.399409  -9599.332486   -127.490637
PE08   8711.206317 -16881.270470 -22702.090403   -292.030546
PE09   6858.121771  27086.695314   9744.496552   -491.184113
PE10 -11833.741082  26422.834265   6134.829681   -635.197947
PE11  -3833.307797  24932.922193  15477.677479   2555.060145
PE12 -17310.236567  23824.790217  -3082.505277  -1095.313344
PE13   4295.774169 -25106.388199 -15078.344370    -22.483389
PE14  -3762.564205 -27555.001071  10999.827449     86.099408
PE15  17525.149027 -23570.575910   3648.575221   -110.764058
PE18  -6289.752627  19793.819241 -17023.034038    257.909397
PE19 -19543.422767  -5040.920579  21665.212603    172.928869
PE21 -23269.328094 -11007.382017  14618.593697   -601.725519
PE25  22959.161613  11214.272326 -14935.060580      6.113320
PE26 -11726.276067 -11513.231954 -24621.956125    492.934063
PE27  -3185.068483 -16828.414457  24145.376922   -383.231708
PE30  18635.323344 -12601.596414  19234.392368   -437.555800
PE31 -18519.972014  12650.124601 -19309.190054    -27.336984
PE33 -20175.388616   7727.963780 -20235.543106     13.109388
PE34  20255.622557  -8282.582268  19925.345796   -118.803330
PE36  11185.252872  11969.171611  24648.692127   -245.617873
PG01  22681.185745   8458.939916 -11679.026420    253.916592
PG02  14638.933383 -21132.770952   6481.876827   -411.827181
PG03  14190.428420 -12503.673507 -18757.655997    428.184523
PG04   5748.463394 -17320.386954 -19232.866554    389.856401
PG05 -25315.195859   5456.922998   5913.483281   -177.423941
PG06 -10728.400296 -10238.350687 -21964.756355    200.726022
PG07   2637.132892 -23178.627026  12769.181106    -84.952692
PG08  13506.658447  -7314.912611  21566.970373    244.494326
PG09  -5339.212467 -23482.172106 -11226.850316    246.919105
PG10  18201.933242  10802.930064  16453.542890    -49.936776
PG11 -17924.752248   3491.613510 -19243.865327   -691.969179
PG12 -17028.496667  11081.152169 -17361.658740   -516.740606
PG13 -16273.977004  -2426.111535  20690.916735    660.092084
PG14 -14426.678976 -13266.754989  18059.821597    432.950421
PG15 -12491.280432   9218.666526  21053.081061    173.629762
PG16  26602.452571     46.364557   2929.493676   -255.516004
PG17 -13041.265098 -22934.103351  -1745.069071    689.650813
PG18  -3139.961934  22793.648363  13096.620364   -628.857146
PG19 -16549.663331 -17984.818607 -11055.144877    500.896743
PG20 -26059.462826   1806.911152  -4262.986092    373.490082
PG21  16404.690046 -17043.592090  11383.714538    113.386713
PG22 -20605.854077 -10782.576229  12972.418551    -31.314862
PG23   6028.418164  14294.223902  21610.331290    257.878843
PG24 -14859.572507  20395.285312   7158.789020   -479.683179
PG25  -5974.817736  15293.644073 -21170.270303    497.755632
PG26  24168.707812   5465.829278 -10201.220449    131.696845
PG27  18120.779400   4942.680634  18653.258308    -29.259043
PG28   9992.576391  12686.665715 -21096.165988   -302.651394
PG29    835.545535  22772.243768 -13590.453347   -592.781940
PG30  -6388.878261 -17349.955008  19124.440254   -369.088355
PG31  16602.394229   1223.442831 -20988.321476   -227.214097
PG32  15745.906023  21167.180261  -3687.842565   -615.150249
PJ02 -31507.222381  14883.393770 -19090.695416     -0.398399
PJ03 -22937.988191  33693.056099  -6510.326562      0.739356
PJ04 -26083.019143  26244.524631  26122.214964     50.404447
PJ07 -25415.714863  33646.000422     46.145763     -0.048205
PR01 -21506.923182 -11405.188859   7649.107823     89.354600
PR02 -14954.865370    334.121496  20688.113481    -23.409936
PR03   -311.126867  12890.704077  22066.449364    102.661747
PR04  13983.874981  18005.170670  11484.318079    242.531391
PR05  20871.434861  13694.266933  -5287.441482    133.572076
PR06  14207.589664  -1972.752744 -21107.497133   -168.983228
PR07   -324.026520 -13218.074457 -21762.771287     85.239854
PR08 -14312.936300 -17893.846867 -11114.871205     -5.291148
PR09  23238.276876 -10404.437487    301.348195    193.975956
PR10  15674.346714 -14109.486006  14402.693957   -181.005930
PR11  -2195.379959 -10906.838562  22966.505782     20.390045
PR12 -19640.267300   -427.756679  16294.458403     41.678590
PR13 -23818.860060   8813.182717   2369.809608    -48.640371
PR14 -13734.089995  14231.482572 -16105.838214     26.630554
PR15   3854.072296  10371.278840 -22958.982574     78.525956
PR16  19454.582430    362.608891 -16456.677080     26.773057
PR17  -6014.970998  24212.302817  -5203.742410     98.652244
PR18   1425.980370  22914.235969  11173.894042    148.576324
PR19   7406.541561  11885.976130  21311.127507   -281.448729
PR20  11279.162968 -10768.079644  20176.315438   -115.011296
PR21   6338.794878 -24097.446514   5526.947818   -111.918670
PR22  -1628.378669 -22390.864013 -12080.189360     98.583996
PR23  -8787.116007  -8494.325882 -22402.457181   -124.828791
PR24 -11145.745541  11758.456151 -19684.532983    -61.116961
PR25   6909.529876 -24080.528245   4868.769490    -81.028386
PR26 -13489.748095 -17792.441674 -12336.291945     -5.615655
EOF
